{
"type": "FeatureCollection",
"name": "stations",
"crs": { "type": "name", "properties": { "name": "urn:ogc:def:crs:OGC:1.3:CRS84" } },
"features": [
{ "type": "Feature", "properties": { "OBJECTID": 102, "SITEID": 17842762, "STATION": -638, "ROUTE": 15.0, "MP": 243.78, "COUNTY": "Utah", "FC": "Urban Principal Arterial - Interstate", "DESCRIPTION": "I 15 Santaquin", "LAT": 39.965126037597699, "LONG": -111.786651611328 }, "geometry": { "type": "Point", "coordinates": [ -111.786651611002, 39.965126038001401 ] } },
{ "type": "Feature", "properties": { "OBJECTID": 114, "SITEID": 17842790, "STATION": -650, "ROUTE": 6.0, "MP": 159.993, "COUNTY": "Utah", "FC": "Urban Minor Arterial", "DESCRIPTION": "151 East Main Street, Santaquin", "LAT": 39.975711822509801, "LONG": -111.78232574462901 }, "geometry": { "type": "Point", "coordinates": [ -111.782325745001998, 39.97571182300139 ] } },
{ "type": "Feature", "properties": { "OBJECTID": 103, "SITEID": 17842764, "STATION": -639, "ROUTE": 15.0, "MP": 250.32, "COUNTY": "Utah", "FC": "Urban Principal Arterial - Interstate", "DESCRIPTION": "I 15 N. of SR-178, Payson", "LAT": 40.048419952392599, "LONG": -111.739700317383 }, "geometry": { "type": "Point", "coordinates": [ -111.739700317002004, 40.048419952001396 ] } },
{ "type": "Feature", "properties": { "OBJECTID": 118, "SITEID": 17842805, "STATION": -655, "ROUTE": 15.0, "MP": 255.582, "COUNTY": "Utah", "FC": "Urban Principal Arterial - Interstate", "DESCRIPTION": "I 15 100 South Spanish Fork", "LAT": 40.107784271240199, "LONG": -111.677742004395 }, "geometry": { "type": "Point", "coordinates": [ -111.677742004001999, 40.107784271001499 ] } },
{ "type": "Feature", "properties": { "OBJECTID": 116, "SITEID": 17842801, "STATION": -653, "ROUTE": 156.0, "MP": 1.043, "COUNTY": "Utah", "FC": "Urban Principal Arterial - Other", "DESCRIPTION": "890 North Main Street, Spanish Fork", "LAT": 40.121067047119098, "LONG": -111.654502868652 }, "geometry": { "type": "Point", "coordinates": [ -111.654502869002002, 40.121067047001382 ] } },
{ "type": "Feature", "properties": { "OBJECTID": 110, "SITEID": 17842779, "STATION": -646, "ROUTE": 77.0, "MP": 7.79, "COUNTY": "Utah", "FC": "Urban Principal Arterial - Other", "DESCRIPTION": "1445 West 400 South, Springville", "LAT": 40.161128997802699, "LONG": -111.63498687744099 }, "geometry": { "type": "Point", "coordinates": [ -111.634986877002007, 40.161128998001395 ] } },
{ "type": "Feature", "properties": { "OBJECTID": 127, "SITEID": 17842825, "STATION": -664, "ROUTE": 89.0, "MP": 326.609, "COUNTY": "Utah", "FC": "Urban Principal Arterial - Other", "DESCRIPTION": "1400 N State St, Mapleton", "LAT": 40.142158508300803, "LONG": -111.60109710693401 }, "geometry": { "type": "Point", "coordinates": [ -111.601097107002005, 40.142158508001387 ] } },
{ "type": "Feature", "properties": { "OBJECTID": 148, "SITEID": 93404, "STATION": -312, "ROUTE": 6.0, "MP": 182.39, "COUNTY": "Utah", "FC": "Rural Principal Arterial - Other", "DESCRIPTION": "SR 6   4.5 miles SE of SR 89,  Moark Jct.  MP 182.390  FC 02", "LAT": 40.038280487060597, "LONG": -111.534614562988 }, "geometry": { "type": "Point", "coordinates": [ -111.534614563002009, 40.038280487001401 ] } },
{ "type": "Feature", "properties": { "OBJECTID": 157, "SITEID": 93413, "STATION": -321, "ROUTE": 6.0, "MP": 149.65, "COUNTY": "Utah", "FC": "Urban Minor Arterial", "DESCRIPTION": "SR 6   0.25 mile W of SR 68,  Elberta Jct.  MP 149.650  FC 06", "LAT": 39.952136993408203, "LONG": -111.95774078369099 }, "geometry": { "type": "Point", "coordinates": [ -111.957740784001999, 39.952136993001396 ] } },
{ "type": "Feature", "properties": { "OBJECTID": 162, "SITEID": 93418, "STATION": -327, "ROUTE": 6.0, "MP": 174.652, "COUNTY": "Utah", "FC": "Urban Principal Arterial - Other", "DESCRIPTION": "SR 6   0.2 mile W of Center Street,  Spanish Fork  MP 174.652  FC 14", "LAT": 40.113338470458999, "LONG": -111.634239196777 }, "geometry": { "type": "Point", "coordinates": [ -111.634239197002003, 40.113338470001388 ] } },
{ "type": "Feature", "properties": { "OBJECTID": 170, "SITEID": 93426, "STATION": -349, "ROUTE": 15.0, "MP": 246.92, "COUNTY": "Utah", "FC": "Urban Principal Arterial - Interstate", "DESCRIPTION": "I 15   2 miles N of Santaquin Int.  MP 246.920  FC 01", "LAT": 40.0048828125, "LONG": -111.762199401855 }, "geometry": { "type": "Point", "coordinates": [ -111.762199402001997, 40.004882812001405 ] } },
{ "type": "Feature", "properties": { "OBJECTID": 193, "SITEID": 93449, "STATION": -416, "ROUTE": 89.0, "MP": 306.479, "COUNTY": "Utah", "FC": "Rural Principal Arterial - Other", "DESCRIPTION": "SR 89   5.5 miles S of SR 6,  Birdseye  MP 306.479  FC 06", "LAT": 39.939598083496101, "LONG": -111.54172515869099 }, "geometry": { "type": "Point", "coordinates": [ -111.541725159002013, 39.939598083001393 ] } },
{ "type": "Feature", "properties": { "OBJECTID": 219, "SITEID": 93475, "STATION": -611, "ROUTE": 15.0, "MP": 258.6, "COUNTY": "Utah", "FC": "Urban Principal Arterial - Interstate", "DESCRIPTION": "I 15   1 mile S of SR 77,  Springville Int.  MP 258.600  FC 11", "LAT": 40.147903442382798, "LONG": -111.64646148681599 }, "geometry": { "type": "Point", "coordinates": [ -111.646461487002, 40.1479034420014 ] } },
{ "type": "Feature", "properties": { "OBJECTID": 70, "SITEID": 2024109659, "STATION": -815, "ROUTE": 80.0, "MP": 105.186, "COUNTY": "Tooele", "FC": "Rural Principal Arterial - Interstate", "DESCRIPTION": "SR 202 Saltair Drive (Garfield Cutoff) via I-80 @MP 105", "LAT": 40.753269195556598, "LONG": -112.17392730712901 }, "geometry": { "type": "Point", "coordinates": [ -112.173927307002018, 40.753269196001398 ] } },
{ "type": "Feature", "properties": { "OBJECTID": 169, "SITEID": 93425, "STATION": -348, "ROUTE": 15.0, "MP": 341.25, "COUNTY": "Weber", "FC": "Urban Principal Arterial - Interstate", "DESCRIPTION": "I 15   0.5 mile S of 31st Street,  Ogden  MP 341.250  FC 11", "LAT": 41.196041107177699, "LONG": -112.00025939941401 }, "geometry": { "type": "Point", "coordinates": [ -112.000259399002005, 41.196041107001392 ] } },
{ "type": "Feature", "properties": { "OBJECTID": 221, "SITEID": 93477, "STATION": -613, "ROUTE": 15.0, "MP": 360.8, "COUNTY": "Box Elder", "FC": "Rural Principal Arterial - Interstate", "DESCRIPTION": "I 15   2 miles S of S Brigham Int.  MP 360.800  FC 01", "LAT": 41.449195861816399, "LONG": -112.05583190918 }, "geometry": { "type": "Point", "coordinates": [ -112.055831909002009, 41.44919586200141 ] } },
{ "type": "Feature", "properties": { "OBJECTID": 16, "SITEID": 108010, "STATION": -634, "ROUTE": 85.0, "MP": 15.84, "COUNTY": "Salt Lake", "FC": "Urban Principal Arterial - Other Freeways", "DESCRIPTION": "SR 85  7600 South Mountainview Corridor  MP 15.840  FC 12", "LAT": 40.6137084960938, "LONG": -112.037734985352 }, "geometry": { "type": "Point", "coordinates": [ -112.037734985002004, 40.613708496001401 ] } },
{ "type": "Feature", "properties": { "OBJECTID": 53, "SITEID": 1973791246, "STATION": -820, "ROUTE": 154.0, "MP": 7.5, "COUNTY": "Salt Lake", "FC": "Urban Principal Arterial - Other", "DESCRIPTION": "SR-154 N. of 12600 S., South Jordan", "LAT": 40.532745361328097, "LONG": -111.98390197753901 }, "geometry": { "type": "Point", "coordinates": [ -111.983901978001995, 40.532745361001396 ] } },
{ "type": "Feature", "properties": { "OBJECTID": 54, "SITEID": 1975255665, "STATION": -819, "ROUTE": 154.0, "MP": 8.9, "COUNTY": "Salt Lake", "FC": "Urban Principal Arterial - Other", "DESCRIPTION": "SR-154 N. of SR-175 (11400 S., South Jordan)", "LAT": 40.552486419677699, "LONG": -111.978813171387 }, "geometry": { "type": "Point", "coordinates": [ -111.978813171002002, 40.552486420001401 ] } },
{ "type": "Feature", "properties": { "OBJECTID": 5, "SITEID": 103502, "STATION": -627, "ROUTE": 154.0, "MP": 13.004, "COUNTY": "Salt Lake", "FC": "Urban Principal Arterial - Other Freeways", "DESCRIPTION": "SR 154  7700 S Bangerter Highway  MP 13.004  FC 14", "LAT": 40.615268707275398, "LONG": -111.976264953613 }, "geometry": { "type": "Point", "coordinates": [ -111.976264954002019, 40.615268707001391 ] } },
{ "type": "Feature", "properties": { "OBJECTID": 120, "SITEID": 17842809, "STATION": -657, "ROUTE": 2889.0, "MP": 0.777, "COUNTY": "Utah", "FC": "Urban Minor Arterial", "DESCRIPTION": "9227 N Ranches Parkway, Eagle Mountain", "LAT": 40.369777679443402, "LONG": -111.97589874267599 }, "geometry": { "type": "Point", "coordinates": [ -111.975898743002006, 40.369777679001402 ] } },
{ "type": "Feature", "properties": { "OBJECTID": 4, "SITEID": 103204, "STATION": -626, "ROUTE": 73.0, "MP": 35.153, "COUNTY": "Utah", "FC": "Urban Principal Arterial - Other", "DESCRIPTION": "SR 73  W of 800 W,  Saratoga Springs   MP 35.153   FC 14", "LAT": 40.386363983154297, "LONG": -111.940475463867 }, "geometry": { "type": "Point", "coordinates": [ -111.940475464002006, 40.386363983001409 ] } },
{ "type": "Feature", "properties": { "OBJECTID": 13, "SITEID": 107830, "STATION": -631, "ROUTE": 266.0, "MP": 1.923, "COUNTY": "Salt Lake", "FC": "Urban Minor Arterial", "DESCRIPTION": "SR 266  4700 S 1075 W, SLC  MP 1.923  FC 14", "LAT": 40.672916412353501, "LONG": -111.918701171875 }, "geometry": { "type": "Point", "coordinates": [ -111.918701172002002, 40.672916412001385 ] } },
{ "type": "Feature", "properties": { "OBJECTID": 34, "SITEID": -1302276766, "STATION": -636, "ROUTE": 154.0, "MP": 1.857, "COUNTY": "Salt Lake", "FC": "Urban Principal Arterial - Other Freeways", "DESCRIPTION": "SR 154 Bangerter Hwy 700 West, Draper  MP 1.857 **CCS**", "LAT": 40.496997833252003, "LONG": -111.913772583008 }, "geometry": { "type": "Point", "coordinates": [ -111.913772583002, 40.496997833001394 ] } },
{ "type": "Feature", "properties": { "OBJECTID": 21, "SITEID": -1220211212, "STATION": -680, "ROUTE": 15.0, "MP": 296.906, "COUNTY": "Salt Lake", "FC": "Urban Principal Arterial - Interstate", "DESCRIPTION": "I-15 NB Collector", "LAT": 40.601348876953097, "LONG": -111.903564453125 }, "geometry": { "type": "Point", "coordinates": [ -111.903564453002005, 40.601348877001406 ] } },
{ "type": "Feature", "properties": { "OBJECTID": 52, "SITEID": 1973534277, "STATION": -816, "ROUTE": 15.0, "MP": 300.35, "COUNTY": "Salt Lake", "FC": "Urban Principal Arterial - Interstate", "DESCRIPTION": "I 215 South Interchange Via I-15 NB @MP 300.35", "LAT": 40.650485992431598, "LONG": -111.901573181152 }, "geometry": { "type": "Point", "coordinates": [ -111.901573181001993, 40.6504859920014 ] } },
{ "type": "Feature", "properties": { "OBJECTID": 112, "SITEID": 17842785, "STATION": -648, "ROUTE": 194.0, "MP": 1.233, "COUNTY": "Utah", "FC": "Urban Principal Arterial - Other", "DESCRIPTION": "2964 West via 2100 North, Lehi", "LAT": 40.413082122802699, "LONG": -111.89959716796901 }, "geometry": { "type": "Point", "coordinates": [ -111.899597168002003, 40.413082123001402 ] } },
{ "type": "Feature", "properties": { "OBJECTID": 136, "SITEID": 17842848, "STATION": -674, "ROUTE": 15.0, "MP": 284.585, "COUNTY": "Utah", "FC": "Urban Principal Arterial - Interstate", "DESCRIPTION": "I 15 N of SR 92, Alpine", "LAT": 40.438999176025398, "LONG": -111.897842407227 }, "geometry": { "type": "Point", "coordinates": [ -111.897842407002017, 40.43899917600141 ] } },
{ "type": "Feature", "properties": { "OBJECTID": 3, "SITEID": 102709, "STATION": -302, "ROUTE": 15.0, "MP": 290.6, "COUNTY": "Salt Lake", "FC": "Urban Principal Arterial - Interstate", "DESCRIPTION": "I 15  12900 South  M.P.  290.600  FC 11", "LAT": 40.516502380371101, "LONG": -111.89151763916 }, "geometry": { "type": "Point", "coordinates": [ -111.891517639002004, 40.516502380001398 ] } },
{ "type": "Feature", "properties": { "OBJECTID": 125, "SITEID": 17842820, "STATION": -662, "ROUTE": 2878.0, "MP": 4.413, "COUNTY": "Utah", "FC": "Urban Minor Arterial", "DESCRIPTION": "960 North 2300 West, Lehi", "LAT": 40.399341583252003, "LONG": -111.88632202148401 }, "geometry": { "type": "Point", "coordinates": [ -111.886322021002002, 40.399341583001402 ] } },
{ "type": "Feature", "properties": { "OBJECTID": 135, "SITEID": 17842846, "STATION": -673, "ROUTE": 15.0, "MP": 281.045, "COUNTY": "Utah", "FC": "Urban Principal Arterial - Interstate", "DESCRIPTION": "I 15 1200 N, Lehi", "LAT": 40.402435302734403, "LONG": -111.851036071777 }, "geometry": { "type": "Point", "coordinates": [ -111.851036072002003, 40.40243530300139 ] } },
{ "type": "Feature", "properties": { "OBJECTID": 137, "SITEID": 17842850, "STATION": -675, "ROUTE": 92.0, "MP": 2.559, "COUNTY": "Utah", "FC": "Urban Principal Arterial - Other Freeways", "DESCRIPTION": "Timpanogos Hwy Collector Lanes", "LAT": 40.432411193847699, "LONG": -111.847297668457 }, "geometry": { "type": "Point", "coordinates": [ -111.847297668002, 40.432411194001396 ] } },
{ "type": "Feature", "properties": { "OBJECTID": 138, "SITEID": 17842852, "STATION": -676, "ROUTE": 92.0, "MP": 2.558, "COUNTY": "Utah", "FC": "Urban Principal Arterial - Other", "DESCRIPTION": "SR 92 East of Center St", "LAT": 40.432624816894503, "LONG": -111.847282409668 }, "geometry": { "type": "Point", "coordinates": [ -111.847282410001995, 40.432624817001404 ] } },
{ "type": "Feature", "properties": { "OBJECTID": 51, "SITEID": 1973307433, "STATION": -818, "ROUTE": 215.0, "MP": 8.256, "COUNTY": "Salt Lake", "FC": "Rural Principal Arterial - Interstate", "DESCRIPTION": "Please enter location text", "LAT": 40.631092071533203, "LONG": -111.843872070312 }, "geometry": { "type": "Point", "coordinates": [ -111.843872070002007, 40.631092072001408 ] } },
{ "type": "Feature", "properties": { "OBJECTID": 14, "SITEID": 108006, "STATION": -632, "ROUTE": 145.0, "MP": 5.555, "COUNTY": "Utah", "FC": "Urban Principal Arterial - Other", "DESCRIPTION": "SR 145 Pioneer Crossing VMS Sign, Lehi-American Fork  MP  5.555  FC 12", "LAT": 40.375820159912102, "LONG": -111.83616638183599 }, "geometry": { "type": "Point", "coordinates": [ -111.836166382002006, 40.375820160001403 ] } },
{ "type": "Feature", "properties": { "OBJECTID": 134, "SITEID": 17842844, "STATION": -672, "ROUTE": 15.0, "MP": 279.272, "COUNTY": "Utah", "FC": "Urban Principal Arterial - Interstate", "DESCRIPTION": "I 15 300 N, American Fork", "LAT": 40.383216857910199, "LONG": -111.83022308349599 }, "geometry": { "type": "Point", "coordinates": [ -111.830223083001997, 40.383216858001397 ] } },
{ "type": "Feature", "properties": { "OBJECTID": 107, "SITEID": 17842773, "STATION": -643, "ROUTE": 2932.0, "MP": 1.6, "COUNTY": "Utah", "FC": "Urban Collector", "DESCRIPTION": "1860 North 1200 East, Lehi", "LAT": 40.410320281982401, "LONG": -111.830200195312 }, "geometry": { "type": "Point", "coordinates": [ -111.830200195002007, 40.410320282001393 ] } },
{ "type": "Feature", "properties": { "OBJECTID": 121, "SITEID": 17842811, "STATION": -658, "ROUTE": 89.0, "MP": 349.598, "COUNTY": "Utah", "FC": "Urban Principal Arterial - Other", "DESCRIPTION": "765 West State St, American Fork", "LAT": 40.385704040527301, "LONG": -111.81941986084 }, "geometry": { "type": "Point", "coordinates": [ -111.819419861002004, 40.385704041001404 ] } },
{ "type": "Feature", "properties": { "OBJECTID": 166, "SITEID": 93422, "STATION": -335, "ROUTE": 173.0, "MP": 8.26, "COUNTY": "Salt Lake", "FC": "Urban Minor Arterial", "DESCRIPTION": "SR 173   1075 W 5400 S,  SLC  MP 8.260  FC 16", "LAT": 40.652896881103501, "LONG": -111.918571472168 }, "geometry": { "type": "Point", "coordinates": [ -111.918571472002014, 40.652896881001396 ] } },
{ "type": "Feature", "properties": { "OBJECTID": 172, "SITEID": 93428, "STATION": -351, "ROUTE": 215.0, "MP": 12.381, "COUNTY": "Salt Lake", "FC": "Urban Principal Arterial - Interstate", "DESCRIPTION": "I 215   1050 W,  SLC  MP 12.381  FC 11", "LAT": 40.637943267822301, "LONG": -111.921035766602 }, "geometry": { "type": "Point", "coordinates": [ -111.921035767001996, 40.637943268001393 ] } },
{ "type": "Feature", "properties": { "OBJECTID": 185, "SITEID": 93441, "STATION": -406, "ROUTE": 71.0, "MP": 16.337, "COUNTY": "Salt Lake", "FC": "Urban Principal Arterial - Other", "DESCRIPTION": "SR 71   4550 S 700 E,  SLC  MP 16.337  FC 14", "LAT": 40.671810150146499, "LONG": -111.871688842773 }, "geometry": { "type": "Point", "coordinates": [ -111.871688843002005, 40.671810150001399 ] } },
{ "type": "Feature", "properties": { "OBJECTID": 186, "SITEID": 93442, "STATION": -407, "ROUTE": 68.0, "MP": 38.593, "COUNTY": "Salt Lake", "FC": "Urban Minor Arterial", "DESCRIPTION": "SR 68   2 miles N of Utah County Line,  Bluffdale  MP 38.593  FC 16", "LAT": 40.469226837158203, "LONG": -111.94606781005901 }, "geometry": { "type": "Point", "coordinates": [ -111.946067810002006, 40.469226837001401 ] } },
{ "type": "Feature", "properties": { "OBJECTID": 225, "SITEID": 93481, "STATION": -617, "ROUTE": 215.0, "MP": 5.53, "COUNTY": "Salt Lake", "FC": "Urban Principal Arterial - Interstate", "DESCRIPTION": "I 215   5800 S Knudsen's Corner,  SLC  MP 5.300 FC 11", "LAT": 40.648185729980497, "LONG": -111.80808258056599 }, "geometry": { "type": "Point", "coordinates": [ -111.808082581001997, 40.648185730001401 ] } },
{ "type": "Feature", "properties": { "OBJECTID": 153, "SITEID": 93409, "STATION": -317, "ROUTE": 210.0, "MP": 4.129, "COUNTY": "Salt Lake", "FC": "Rural Minor Arterial", "DESCRIPTION": "SR 210   Mouth of Little Cottonwood Canyon, SLC  MP 4.166  FC 06", "LAT": 40.571662902832003, "LONG": -111.771438598633 }, "geometry": { "type": "Point", "coordinates": [ -111.771438599001996, 40.571662903001396 ] } },
{ "type": "Feature", "properties": { "OBJECTID": 132, "SITEID": 17842840, "STATION": -670, "ROUTE": 15.0, "MP": 274.561, "COUNTY": "Utah", "FC": "Urban Principal Arterial - Interstate", "DESCRIPTION": "I 15 200 N Lindon", "LAT": 40.342830657958999, "LONG": -111.75838470459 }, "geometry": { "type": "Point", "coordinates": [ -111.758384705002015, 40.342830658001404 ] } },
{ "type": "Feature", "properties": { "OBJECTID": 133, "SITEID": 17842842, "STATION": -671, "ROUTE": 15.0, "MP": 277.135, "COUNTY": "Utah", "FC": "Urban Principal Arterial - Interstate", "DESCRIPTION": "I 15 500 S Provo, American Fork", "LAT": 40.342830657958999, "LONG": -111.75838470459 }, "geometry": { "type": "Point", "coordinates": [ -111.758384705002015, 40.342830658001404 ] } },
{ "type": "Feature", "properties": { "OBJECTID": 111, "SITEID": 17842781, "STATION": -647, "ROUTE": 89.0, "MP": 344.17, "COUNTY": "Utah", "FC": "Urban Principal Arterial - Other", "DESCRIPTION": "710 N State St, Pleasant Grove", "LAT": 40.3539009094238, "LONG": -111.733833312988 }, "geometry": { "type": "Point", "coordinates": [ -111.733833313001995, 40.353900909001403 ] } },
{ "type": "Feature", "properties": { "OBJECTID": 115, "SITEID": 17842794, "STATION": -651, "ROUTE": 114.0, "MP": 5.2, "COUNTY": "Utah", "FC": "Urban Principal Arterial - Other", "DESCRIPTION": "1102 South Geneva Road, Orem", "LAT": 40.2778930664062, "LONG": -111.72991180419901 }, "geometry": { "type": "Point", "coordinates": [ -111.729911804002001, 40.277893066001404 ] } },
{ "type": "Feature", "properties": { "OBJECTID": 105, "SITEID": 17842769, "STATION": -641, "ROUTE": 15.0, "MP": 272.15, "COUNTY": "Utah", "FC": "Urban Principal Arterial - Interstate", "DESCRIPTION": "I 15 N. of SR 52 800 N.", "LAT": 40.3184814453125, "LONG": -111.726593017578 }, "geometry": { "type": "Point", "coordinates": [ -111.726593018002021, 40.318481445001389 ] } },
{ "type": "Feature", "properties": { "OBJECTID": 131, "SITEID": 17842838, "STATION": -669, "ROUTE": 15.0, "MP": 270.029, "COUNTY": "Utah", "FC": "Urban Principal Arterial - Interstate", "DESCRIPTION": "I 15 680 S, Provo", "LAT": 40.284732818603501, "LONG": -111.72589874267599 }, "geometry": { "type": "Point", "coordinates": [ -111.725898743002006, 40.284732819001398 ] } },
{ "type": "Feature", "properties": { "OBJECTID": 106, "SITEID": 17842771, "STATION": -642, "ROUTE": 52.0, "MP": 1.215, "COUNTY": "Utah", "FC": "Urban Principal Arterial - Other", "DESCRIPTION": "SR 52 800 N 700 W, Orem", "LAT": 40.311927795410199, "LONG": -111.71176910400401 }, "geometry": { "type": "Point", "coordinates": [ -111.711769104002002, 40.311927795001402 ] } },
{ "type": "Feature", "properties": { "OBJECTID": 143, "SITEID": 93399, "STATION": -306, "ROUTE": 15.0, "MP": 267.841, "COUNTY": "Utah", "FC": "Urban Principal Arterial - Interstate", "DESCRIPTION": "I 15   2 miles N of Center Street,  Provo  MP 267.841  FC 11", "LAT": 40.255622863769503, "LONG": -111.69931793212901 }, "geometry": { "type": "Point", "coordinates": [ -111.699317932002003, 40.255622864001403 ] } },
{ "type": "Feature", "properties": { "OBJECTID": 130, "SITEID": 17842835, "STATION": -668, "ROUTE": 15.0, "MP": 264.53, "COUNTY": "Utah", "FC": "Urban Principal Arterial - Interstate", "DESCRIPTION": "I 15 900 S  Provo", "LAT": 40.221889495849602, "LONG": -111.671844482422 }, "geometry": { "type": "Point", "coordinates": [ -111.671844482002001, 40.22188949600141 ] } },
{ "type": "Feature", "properties": { "OBJECTID": 113, "SITEID": 17842788, "STATION": -649, "ROUTE": 114.0, "MP": 0.207, "COUNTY": "Utah", "FC": "Urban Principal Arterial - Other", "DESCRIPTION": "730 West Center Street, Provo", "LAT": 40.233909606933601, "LONG": -111.671630859375 }, "geometry": { "type": "Point", "coordinates": [ -111.671630859001993, 40.233909607001394 ] } },
{ "type": "Feature", "properties": { "OBJECTID": 124, "SITEID": 17842818, "STATION": -661, "ROUTE": 52.0, "MP": 3.431, "COUNTY": "Utah", "FC": "Urban Principal Arterial - Other", "DESCRIPTION": "1080 East 800 North, Orem", "LAT": 40.311855316162102, "LONG": -111.669845581055 }, "geometry": { "type": "Point", "coordinates": [ -111.669845581001994, 40.311855316001399 ] } },
{ "type": "Feature", "properties": { "OBJECTID": 122, "SITEID": 17842813, "STATION": -659, "ROUTE": 189.0, "MP": 2.72, "COUNTY": "Utah", "FC": "Urban Principal Arterial - Other", "DESCRIPTION": "871 North University Avenue, Provo", "LAT": 40.245445251464801, "LONG": -111.65884399414099 }, "geometry": { "type": "Point", "coordinates": [ -111.658843994002012, 40.245445251001392 ] } },
{ "type": "Feature", "properties": { "OBJECTID": 129, "SITEID": 17842833, "STATION": -667, "ROUTE": 15.0, "MP": 262.562, "COUNTY": "Utah", "FC": "Urban Principal Arterial - Interstate", "DESCRIPTION": "I 15 2400 S Provo", "LAT": 40.198394775390597, "LONG": -111.65073394775401 }, "geometry": { "type": "Point", "coordinates": [ -111.650733948001999, 40.19839477500139 ] } },
{ "type": "Feature", "properties": { "OBJECTID": 128, "SITEID": 17842827, "STATION": -665, "ROUTE": 15.0, "MP": 261.075, "COUNTY": "Utah", "FC": "Urban Principal Arterial - Interstate", "DESCRIPTION": "I 15 750 N, Springville", "LAT": 40.177463531494098, "LONG": -111.64698791503901 }, "geometry": { "type": "Point", "coordinates": [ -111.646987915002001, 40.177463531001401 ] } },
{ "type": "Feature", "properties": { "OBJECTID": 123, "SITEID": 17842815, "STATION": -660, "ROUTE": 89.0, "MP": 330.234, "COUNTY": "Utah", "FC": "Urban Principal Arterial - Other", "DESCRIPTION": "2779 S State St, Springville", "LAT": 40.192024230957003, "LONG": -111.612335205078 }, "geometry": { "type": "Point", "coordinates": [ -111.612335205001997, 40.19202423100139 ] } },
{ "type": "Feature", "properties": { "OBJECTID": 155, "SITEID": 93411, "STATION": -319, "ROUTE": 189.0, "MP": 13.342, "COUNTY": "Utah", "FC": "Rural Principal Arterial - Other", "DESCRIPTION": "SR 189   1 mile W of SR 92, Provo Cyn.  MP 13.342 FC 02", "LAT": 40.356281280517599, "LONG": -111.573371887207 }, "geometry": { "type": "Point", "coordinates": [ -111.573371887001997, 40.356281281001387 ] } },
{ "type": "Feature", "properties": { "OBJECTID": 158, "SITEID": 93414, "STATION": -322, "ROUTE": 190.0, "MP": 2.46, "COUNTY": "Salt Lake", "FC": "Rural Minor Arterial", "DESCRIPTION": "SR 190   Mouth of Big Cottonwood Cyn.  MP 2.460  FC 16", "LAT": 40.619152069091797, "LONG": -111.78604125976599 }, "geometry": { "type": "Point", "coordinates": [ -111.786041260001994, 40.619152069001402 ] } },
{ "type": "Feature", "properties": { "OBJECTID": 171, "SITEID": 93427, "STATION": -350, "ROUTE": 189.0, "MP": 4.831, "COUNTY": "Utah", "FC": "Urban Principal Arterial - Other", "DESCRIPTION": "SR 189   3200 N University Avenue,  Provo  MP 4.831  FC 14", "LAT": 40.275905609130902, "LONG": -111.657356262207 }, "geometry": { "type": "Point", "coordinates": [ -111.657356262001997, 40.275905609001406 ] } },
{ "type": "Feature", "properties": { "OBJECTID": 214, "SITEID": 93470, "STATION": -601, "ROUTE": 92.0, "MP": 7.873, "COUNTY": "Utah", "FC": "Rural Major Collector", "DESCRIPTION": "SR 92   American Fork Canyon W Toll Booth  MP 7.873  FC 17", "LAT": 40.433513641357401, "LONG": -111.74534606933599 }, "geometry": { "type": "Point", "coordinates": [ -111.745346069001997, 40.43351364100139 ] } },
{ "type": "Feature", "properties": { "OBJECTID": 215, "SITEID": 93471, "STATION": -602, "ROUTE": 92.0, "MP": 22.487, "COUNTY": "Utah", "FC": "Rural Major Collector", "DESCRIPTION": "SR 92   American Fork Canyon E Toll Booth  MP 22.487  FC 07", "LAT": 40.405055999755902, "LONG": -111.60434722900401 }, "geometry": { "type": "Point", "coordinates": [ -111.604347229002002, 40.405056000001402 ] } },
{ "type": "Feature", "properties": { "OBJECTID": 174, "SITEID": 93430, "STATION": -354, "ROUTE": 171.0, "MP": 8.8, "COUNTY": "Salt Lake", "FC": "Urban Principal Arterial - Other", "DESCRIPTION": "SR 171   1200 W 3300 S,  SLC  MP 8.800  FC 14", "LAT": 40.699222564697301, "LONG": -111.92227935791 }, "geometry": { "type": "Point", "coordinates": [ -111.922279358002001, 40.699222565001392 ] } },
{ "type": "Feature", "properties": { "OBJECTID": 11, "SITEID": 107428, "STATION": -629, "ROUTE": 15.0, "MP": 304.0, "COUNTY": "Salt Lake", "FC": "Urban Principal Arterial - Interstate", "DESCRIPTION": "I 15 2900 South  MP 304.001  FC 11", "LAT": 40.707813262939403, "LONG": -111.90346527099599 }, "geometry": { "type": "Point", "coordinates": [ -111.903465271002005, 40.707813263001391 ] } },
{ "type": "Feature", "properties": { "OBJECTID": 173, "SITEID": 93429, "STATION": -353, "ROUTE": 215.0, "MP": 18.732, "COUNTY": "Salt Lake", "FC": "Urban Principal Arterial - Interstate", "DESCRIPTION": "I 215   2500 S,  SLC  MP 18.732  FC 11", "LAT": 40.713874816894503, "LONG": -111.954093933105 }, "geometry": { "type": "Point", "coordinates": [ -111.954093933002, 40.713874817001297 ] } },
{ "type": "Feature", "properties": { "OBJECTID": 168, "SITEID": 93424, "STATION": -341, "ROUTE": 80.0, "MP": 123.54, "COUNTY": "Salt Lake", "FC": "Urban Principal Arterial - Interstate", "DESCRIPTION": "I 80   1 mile E of 300 E Overpass,  SLC  MP 123.540  FC 11", "LAT": 40.718029022216797, "LONG": -111.88018798828099 }, "geometry": { "type": "Point", "coordinates": [ -111.880187988002007, 40.718029022001396 ] } },
{ "type": "Feature", "properties": { "OBJECTID": 139, "SITEID": 93395, "STATION": -301, "ROUTE": 80.0, "MP": 129.0, "COUNTY": "Salt Lake", "FC": "Rural Principal Arterial - Interstate", "DESCRIPTION": "I 80   1 mile E of I 215 Int.,  Parleys Canyon,  SLC  MP 129.000  FC 11", "LAT": 40.724399566650398, "LONG": -111.77293395996099 }, "geometry": { "type": "Point", "coordinates": [ -111.772933960002007, 40.724399567001392 ] } },
{ "type": "Feature", "properties": { "OBJECTID": 165, "SITEID": 93421, "STATION": -333, "ROUTE": 71.0, "MP": 21.26, "COUNTY": "Salt Lake", "FC": "Urban Principal Arterial - Other", "DESCRIPTION": "SR 71   1190 S 700 E,  SLC  MP 21.260  FC 14", "LAT": 40.743034362792997, "LONG": -111.87099456787099 }, "geometry": { "type": "Point", "coordinates": [ -111.870994568002004, 40.743034363001399 ] } },
{ "type": "Feature", "properties": { "OBJECTID": 20, "SITEID": -1220868737, "STATION": -677, "ROUTE": 80.0, "MP": 138.5, "COUNTY": "Salt Lake", "FC": "Rural Principal Arterial - Interstate", "DESCRIPTION": "I-80 Lambs Canyon", "LAT": 40.743335723877003, "LONG": -111.65785980224599 }, "geometry": { "type": "Point", "coordinates": [ -111.657859802001994, 40.74333572400139 ] } },
{ "type": "Feature", "properties": { "OBJECTID": 161, "SITEID": 93417, "STATION": -325, "ROUTE": 89.0, "MP": 377.45, "COUNTY": "Salt Lake", "FC": "Urban Minor Arterial", "DESCRIPTION": "SR 89   1087 S State Street,  SLC  MP 377.450  FC 16", "LAT": 40.745616912841797, "LONG": -111.888069152832 }, "geometry": { "type": "Point", "coordinates": [ -111.888069153001993, 40.745616913001385 ] } },
{ "type": "Feature", "properties": { "OBJECTID": 164, "SITEID": 93420, "STATION": -332, "ROUTE": 186.0, "MP": 6.186, "COUNTY": "Salt Lake", "FC": "Urban Principal Arterial - Other", "DESCRIPTION": "SR 186   950 S Foothill Blvd.,  SLC  MP 6.186  FC 14", "LAT": 40.746860504150398, "LONG": -111.83038330078099 }, "geometry": { "type": "Point", "coordinates": [ -111.830383301002001, 40.746860504001404 ] } },
{ "type": "Feature", "properties": { "OBJECTID": 167, "SITEID": 93423, "STATION": -340, "ROUTE": 80.0, "MP": 118.42, "COUNTY": "Salt Lake", "FC": "Urban Principal Arterial - Interstate", "DESCRIPTION": "I 80   1325  W,  SLC  MP 118.420  FC 11", "LAT": 40.764606475830099, "LONG": -111.928871154785 }, "geometry": { "type": "Point", "coordinates": [ -111.928871155002, 40.764606476001397 ] } },
{ "type": "Feature", "properties": { "OBJECTID": 188, "SITEID": 93444, "STATION": -409, "ROUTE": 2330.0, "MP": 1.69, "COUNTY": "Salt Lake", "FC": "Urban Minor Arterial", "DESCRIPTION": "Route 2330   1200 W North Temple,  SLC  MP 1.690  FC 16", "LAT": 40.7716674804688, "LONG": -111.92633056640599 }, "geometry": { "type": "Point", "coordinates": [ -111.926330566001994, 40.771667480001391 ] } },
{ "type": "Feature", "properties": { "OBJECTID": 10, "SITEID": 107423, "STATION": -628, "ROUTE": 215.0, "MP": 28.55, "COUNTY": "Davis", "FC": "Urban Principal Arterial - Interstate", "DESCRIPTION": "I 215   1100 West, East of Redwood Rd. MP 28.550  FC 11", "LAT": 40.834220886230497, "LONG": -111.922904968262 }, "geometry": { "type": "Point", "coordinates": [ -111.922904968002001, 40.83422088600129 ] } },
{ "type": "Feature", "properties": { "OBJECTID": 1, "SITEID": 101463, "STATION": -624, "ROUTE": 67.0, "MP": 0.944, "COUNTY": "Davis", "FC": "Urban Principal Arterial - Other Freeways", "DESCRIPTION": "SR 67  Legacy Parkway  MP 0.944  FC 12", "LAT": 40.840892791747997, "LONG": -111.94214630127 }, "geometry": { "type": "Point", "coordinates": [ -111.942146301001998, 40.840892792001398 ] } },
{ "type": "Feature", "properties": { "OBJECTID": 151, "SITEID": 93407, "STATION": -315, "ROUTE": 15.0, "MP": 321.96, "COUNTY": "Davis", "FC": "Urban Principal Arterial - Interstate", "DESCRIPTION": "I 15   1.8 miles S of Lagoon Drive Int.  MP 321.960  FC 11", "LAT": 40.957187652587898, "LONG": -111.89145660400401 }, "geometry": { "type": "Point", "coordinates": [ -111.891456604002002, 40.957187653001405 ] } },
{ "type": "Feature", "properties": { "OBJECTID": 2, "SITEID": 101465, "STATION": -625, "ROUTE": 67.0, "MP": 8.294, "COUNTY": "Davis", "FC": "Urban Principal Arterial - Other Freeways", "DESCRIPTION": "SR 67  Legacy Parkway  MP 8.294  FC 12", "LAT": 40.976844787597699, "LONG": -111.897018432617 }, "geometry": { "type": "Point", "coordinates": [ -111.897018433002003, 40.976844788001394 ] } },
{ "type": "Feature", "properties": { "OBJECTID": 224, "SITEID": 93480, "STATION": -616, "ROUTE": 15.0, "MP": 314.29, "COUNTY": "Davis", "FC": "Urban Principal Arterial - Interstate", "DESCRIPTION": "I 15   0.7 mile N of I 215 On-Ramp,  Woods Cross  MP 314.290  FC 11", "LAT": 40.850299835205099, "LONG": -111.912475585938 }, "geometry": { "type": "Point", "coordinates": [ -111.912475586002017, 40.850299835001401 ] } },
{ "type": "Feature", "properties": { "OBJECTID": 232, "SITEID": 93489, "STATION": -711, "ROUTE": 154.0, "MP": 20.229, "COUNTY": "Salt Lake", "FC": "Urban Principal Arterial - Other", "DESCRIPTION": "SR 154   2500 S Bangerter Highway,  SLC  MP 20.229  FC 14", "LAT": 40.714561462402301, "LONG": -111.98342132568401 }, "geometry": { "type": "Point", "coordinates": [ -111.983421326002002, 40.714561462001399 ] } },
{ "type": "Feature", "properties": { "OBJECTID": 163, "SITEID": 93419, "STATION": -329, "ROUTE": 89.0, "MP": 412.398, "COUNTY": "Weber", "FC": "Urban Principal Arterial - Other", "DESCRIPTION": "SR 89   3450 S Washington Blvd.,  Ogden  MP 412.398  FC 14", "LAT": 41.201339721679702, "LONG": -111.971115112305 }, "geometry": { "type": "Point", "coordinates": [ -111.971115112001996, 41.201339722001407 ] } },
{ "type": "Feature", "properties": { "OBJECTID": 220, "SITEID": 93476, "STATION": -612, "ROUTE": 15.0, "MP": 331.071, "COUNTY": "Davis", "FC": "Urban Principal Arterial - Interstate", "DESCRIPTION": "I 15   N of SR 126 Int.,  Layton  MP 331.071  FC 11", "LAT": 41.067531585693402, "LONG": -111.97109222412099 }, "geometry": { "type": "Point", "coordinates": [ -111.971092224002007, 41.067531586001294 ] } }
]
}
